COSMOS 2477 (745)       
1 37868U 11064B   25013.06220729 -.00000024  00000+0  00000+0 0  9998
2 37868  64.9900  90.5456 0021424 237.3963 324.6358  2.13102857102673
COSMOS 2475 (743)       
1 37869U 11064C   25013.55014807 -.00000020  00000+0  00000+0 0  9997
2 37869  64.9972  90.5459 0026428 251.4730 282.3364  2.13101510102698
COSMOS 2485 (747)       
1 39155U 13019A   25014.38123543 -.00000014  00000+0  00000+0 0  9992
2 39155  65.1392  91.0542 0024702 232.6878 127.1414  2.13104331 91225
COSMOS 2492 (754)       
1 39620U 14012A   25014.33692348 -.00000080  00000+0  00000+0 0  9995
2 39620  65.5819 331.5154 0014781 317.5042  42.3719  2.13103147 84180
COSMOS 2500 (755)       
1 40001U 14032A   25013.57499214 -.00000082  00000+0  00000+0 0  9996
2 40001  65.5190 331.3298 0006687 223.2475 136.6897  2.13105992 82387
COSMOS 2501 (702K)      
1 40315U 14075A   25013.36139277  .00000078  00000+0  00000+0 0  9992
2 40315  63.6179 208.3771 0019083 203.4507 156.5003  2.13101376 78770
COSMOS 2514 (751)       
1 41330U 16008A   25014.28298845 -.00000080  00000+0  00000+0 0  9991
2 41330  65.3116 330.7618 0010759 223.1725 136.7346  2.13102564 69567
COSMOS 2522 (752)       
1 42939U 17055A   25014.12253893  .00000069  00000+0  00000+0 0  9993
2 42939  64.0786 209.5625 0005695 225.7682 134.2212  2.13101909 56918
